OBJECT_NAME,OBJECT_ID,EPOCH,MEAN_MOTION,ECCENTRICITY,INCLINATION,RA_OF_ASC_NODE,ARG_OF_PERICENTER,MEAN_ANOMALY,EPHEMERIS_TYPE,CLASSIFICATION_TYPE,NORAD_CAT_ID,ELEMENT_SET_NO,REV_AT_EPOCH,BSTAR,MEAN_MOTION_DOT,MEAN_MOTION_DDOT
STARLINK-37627,2026-119V,2026-06-07T06:00:04.999968,15.87042388,.00010757,97.2832,183.5496,94.3915,228.8136,0,U,69315,999,245,-.11235923E-1,-.2490559E-1,0
STARLINK-37738,2026-119W,2026-06-07T06:00:04.999968,15.84339955,.00013443,97.2834,183.5480,93.8230,225.5066,0,U,69316,999,245,-.12858062E-1,-.2497467E-1,0
STARLINK-37799,2026-119X,2026-06-07T06:00:04.999968,15.85755507,.00011868,97.2831,183.5497,89.4619,234.6435,0,U,69317,999,240,-.12110899E-1,-.2515868E-1,0
STARLINK-37802,2026-119Y,2026-06-07T06:00:04.999968,15.86724620,.00012211,97.2835,183.5536,80.5066,251.5075,0,U,69318,999,245,-.11441597E-1,-.2495995E-1,0
STARLINK-37803,2026-119Z,2026-06-07T06:00:04.999968,15.86885210,.00013026,97.2837,183.5549,94.0545,240.8655,0,U,69319,999,240,-.11192407E-1,-.2466149E-1,0
GUOWANG TEST OBJECT A,2026-120A,2026-06-07T00:11:26.747808,15.38796138,.00094709,54.9964,73.5819,293.0973,66.9057,0,U,69320,999,112,.2690982E-3,.10098E-3,0
GUOWANG TEST OBJECT B,2026-120B,2026-06-04T06:41:24.658368,15.39121370,.00091004,55.0006,85.8667,296.4175,63.5919,0,U,69321,999,70,.6938966E-3,.27005E-3,0
GUOWANG TEST OBJECT C,2026-120C,2026-06-07T00:06:59.207616,15.39523094,.00095324,54.9982,73.5721,307.3721,52.6439,0,U,69322,999,112,.50150836E-3,.19653E-3,0
GUOWANG TEST OBJECT D,2026-120D,2026-06-04T15:59:40.712352,15.39704502,.00080029,55.0029,84.1123,301.7889,58.2360,0,U,69323,999,76,.80800046E-3,.32137E-3,0
QIANFAN-163,2026-121A,2026-06-07T07:03:53.162784,13.60351030,.00191395,89.0164,301.5164,216.1361,143.8504,0,U,69325,999,81,.28557323E-4,.34E-6,0
QIANFAN-164,2026-121B,2026-06-07T07:02:55.804416,13.60504357,.00185192,89.0161,301.5160,217.6275,142.3587,0,U,69326,999,81,.16877011E-3,.139E-5,0
SZ-22 MODULE,2025-272C,2026-06-06T08:33:29.038176,15.59786263,.00080306,41.4811,27.9298,359.5995,0.4836,0,U,69328,999,163,.32427888E-3,.2654E-3,0
