STARLINK-37627          
1 69315U 26119V   26158.25005787 -.02490559  00000+0 -11236-1 0  9998
2 69315  97.2832 183.5496 0001075  94.3915 228.8136 15.87042388  2454
STARLINK-37738          
1 69316U 26119W   26158.25005787 -.02497467  00000+0 -12858-1 0  9995
2 69316  97.2834 183.5480 0001344  93.8230 225.5066 15.84339955  2455
STARLINK-37799          
1 69317U 26119X   26158.25005787 -.02515868  00000+0 -12111-1 0  9994
2 69317  97.2831 183.5497 0001186  89.4619 234.6435 15.85755507  2409
STARLINK-37802          
1 69318U 26119Y   26158.25005787 -.02495995  00000+0 -11442-1 0  9999
2 69318  97.2835 183.5536 0001221  80.5066 251.5075 15.86724620  2452
STARLINK-37803          
1 69319U 26119Z   26158.25005787 -.02466149  00000+0 -11192-1 0  9991
2 69319  97.2837 183.5549 0001302  94.0545 240.8655 15.86885210  2404
GUOWANG TEST OBJECT A   
1 69320U 26120A   26158.00794847  .00010098  00000+0  26910-3 0  9990
2 69320  54.9964  73.5819 0009471 293.0973  66.9057 15.38796138  1124
GUOWANG TEST OBJECT B   
1 69321U 26120B   26155.27875762  .00027005  00000+0  69390-3 0  9998
2 69321  55.0006  85.8667 0009100 296.4175  63.5919 15.39121370   705
GUOWANG TEST OBJECT C   
1 69322U 26120C   26158.00485194  .00019653  00000+0  50151-3 0  9994
2 69322  54.9982  73.5721 0009532 307.3721  52.6439 15.39523094  1122
GUOWANG TEST OBJECT D   
1 69323U 26120D   26155.66644343  .00032137  00000+0  80800-3 0  9993
2 69323  55.0029  84.1123 0008002 301.7889  58.2360 15.39704502   764
QIANFAN-163             
1 69325U 26121A   26158.29436531  .00000034  00000+0  28557-4 0  9999
2 69325  89.0164 301.5164 0019139 216.1361 143.8504 13.60351030   814
QIANFAN-164             
1 69326U 26121B   26158.29370144  .00000139  00000+0  16877-3 0  9994
2 69326  89.0161 301.5160 0018519 217.6275 142.3587 13.60504357   816
SZ-22 MODULE            
1 69328U 25272C   26157.35658609  .00026540  00000+0  32428-3 0  9997
2 69328  41.4811  27.9298 0008030 359.5995   0.4836 15.59786263  1635
